NORAD_CAT_ID,OBJECT_NAME,OBJECT_TYPE,EPOCH,MEAN_MOTION,ECCENTRICITY,INCLINATION,RA_OF_ASC_NODE,ARG_OF_PERICENTER,MEAN_ANOMALY,BSTAR,MEAN_MOTION_DOT,MEAN_MOTION_DDOT,TLE_LINE0,TLE_LINE1,TLE_LINE2,SEMIMAJOR_AXIS,PERIOD,APOGEE,PERIGEE,DECAYED
55922.0,STARLINK-5863,PAYLOAD,2024-03-17 02:51:00,14.9833196,0.0002911,70.0003,326.291,264.8399,95.2428,5.4845e-05,5.61e-06,0.0,0 STARLINK-5863,1 55922U 23037J   24077.11876030  .00000561  00000-0  54845-4 0  9996,2 55922  70.0003 326.2910 0002911 264.8399  95.2428 14.98331960 55590,6950.187,96.107,574.075,570.029,0.0
55922.0,STARLINK-5863,PAYLOAD,2024-03-17 22:04:37,14.98330676,0.0002765,70.0005,324.2715,264.8151,95.2693,1.5112e-05,8.7e-07,0.0,0 STARLINK-5863,1 55922U 23037J   24077.91988171  .00000087  00000-0  15112-4 0  9991,2 55922  70.0005 324.2715 0002765 264.8151  95.2693 14.98330676 55379,6950.191,96.107,573.978,570.134,0.0
55922.0,STARLINK-5863,PAYLOAD,2024-03-18 02:53:01,14.98331551,0.0002761,70.0005,323.7666,265.2605,94.8239,2.3252e-05,1.84e-06,0.0,0 STARLINK-5863,1 55922U 23037J   24078.12016085  .00000184  00000-0  23252-4 0  9993,2 55922  70.0005 323.7666 0002761 265.2605  94.8239 14.98331551 55748,6950.188,96.107,573.972,570.134,0.0
55922.0,STARLINK-5863,PAYLOAD,2024-03-18 22:06:38,14.98329425,0.0002615,70.0007,321.7467,256.6574,103.4293,5.1977e-05,5.27e-06,0.0,0 STARLINK-5863,1 55922U 23037J   24078.92128113  .00000527  00000-0  51977-4 0  9993,2 55922  70.0007 321.7467 0002615 256.6574 103.4293 14.98329425 55524,6950.195,96.107,573.877,570.242,0.0
55922.0,STARLINK-5863,PAYLOAD,2024-03-19 01:18:54,14.98334583,0.0002726,70.0005,321.41,264.9473,95.1375,-3.594e-06,-1.36e-06,0.0,0 STARLINK-5863,1 55922U 23037J   24079.05479892 -.00000136  00000-0 -35940-5 0  9992,2 55922  70.0005 321.4100 0002726 264.9473  95.1375 14.98334583 55547,6950.179,96.107,573.938,570.149,0.0
55922.0,STARLINK-5863,PAYLOAD,2024-03-19 22:08:38,14.98336086,0.0002773,70.0001,319.2217,260.857,99.2276,8.5393e-05,9.26e-06,0.0,0 STARLINK-5863,1 55922U 23037J   24079.92267344  .00000926  00000-0  85393-4 0  9996,2 55922  70.0001 319.2217 0002773 260.8570  99.2276 14.98336086 56010,6950.174,96.107,573.966,570.112,0.0
55922.0,STARLINK-5863,PAYLOAD,2024-03-20 01:20:54,14.98338409,0.0002817,70.0,318.885,264.3858,95.698,0.00010345,1.142e-05,0.0,0 STARLINK-5863,1 55922U 23037J   24080.05619110  .00001142  00000-0  10345-3 0  9999,2 55922  70.0000 318.8850 0002817 264.3858  95.6980 14.98338409 55690,6950.167,96.106,573.99,570.074,0.0
55922.0,STARLINK-5863,PAYLOAD,2024-03-20 20:34:32,14.98327637,0.0003038,69.9995,316.8638,260.5065,99.5751,-5.1909e-05,-7.12e-06,0.0,0 STARLINK-5863,1 55922U 23037J   24080.85732167 -.00000712  00000-0 -51909-4 0  9991,2 55922  69.9995 316.8638 0003038 260.5065  99.5751 14.98327637 56158,6950.2,96.107,574.177,569.954,0.0
55922.0,STARLINK-5863,PAYLOAD,2024-03-20 22:10:40,14.98326147,0.0002963,70.0001,316.6976,256.3909,103.692,-4.8105e-05,-6.67e-06,0.0,0 STARLINK-5863,1 55922U 23037J   24080.92408275 -.00000667  00000-0 -48105-4 0  9992,2 55922  70.0001 316.6976 0002963 256.3909 103.6920 14.98326147 55821,6950.205,96.107,574.129,570.01,0.0
55922.0,STARLINK-5863,PAYLOAD,2024-03-21 14:12:01,14.98332744,0.0003253,69.9989,315.0124,269.483,90.5957,-1.6889e-05,-2.95e-06,0.0,0 STARLINK-5863,1 55922U 23037J   24081.59167895 -.00000295  00000-0 -16889-4 0  9997,2 55922  69.9989 315.0124 0003253 269.4830  90.5957 14.98332744 55927,6950.184,96.107,574.31,569.789,0.0
55922.0,STARLINK-5863,PAYLOAD,2024-03-21 20:36:32,14.98334886,0.0002966,69.9993,314.3392,264.3758,95.7062,7.527e-05,8.05e-06,0.0,0 STARLINK-5863,1 55922U 23037J   24081.85871484  .00000805  00000-0  75270-4 0  9996,2 55922  69.9993 314.3392 0002966 264.3758  95.7062 14.98334886 56300,6950.178,96.107,574.104,569.981,0.0
55922.0,STARLINK-5863,PAYLOAD,2024-03-21 22:12:40,14.9833793,0.0002722,69.9992,314.1707,259.7266,100.3586,0.00010445,1.154e-05,0.0,0 STARLINK-5863,1 55922U 23037J   24081.92547212  .00001154  00000-0  10445-3 0  9993,2 55922  69.9992 314.1707 0002722 259.7266 100.3586 14.98337930 55978,6950.168,96.106,573.925,570.142,0.0
55922.0,STARLINK-5863,PAYLOAD,2024-03-22 01:24:56,14.98343553,0.0003008,69.9992,313.8342,266.9944,93.087,0.0001391,1.568e-05,0.0,0 STARLINK-5863,1 55922U 23037J   24082.05898739  .00001568  00000-0  13910-3 0  9990,2 55922  69.9992 313.8342 0003008 266.9944  93.0870 14.98343553 56333,6950.151,96.106,574.107,569.925,0.0
55922.0,STARLINK-5863,PAYLOAD,2024-03-22 20:38:33,14.98326668,0.000286,70.0001,311.8144,264.5279,95.5554,0.00022256,2.563e-05,0.0,0 STARLINK-5863,1 55922U 23037J   24082.86011375  .00002563  00000-0  22256-3 0  9991,2 55922  70.0001 311.8144 0002860 264.5279  95.5554 14.98326668 56452,6950.203,96.107,574.056,570.08,0.0
55922.0,STARLINK-5863,PAYLOAD,2024-03-22 22:14:42,14.98324534,0.0002812,69.9999,311.645,267.3414,92.7423,0.00019771,2.266e-05,0.0,0 STARLINK-5863,1 55922U 23037J   24082.92687641  .00002266  00000-0  19771-3 0  9991,2 55922  69.9999 311.6450 0002812 267.3414  92.7423 14.98324534 56120,6950.21,96.107,574.029,570.12,0.0
55922.0,STARLINK-5863,PAYLOAD,2024-03-23 20:40:35,14.98330595,0.0002575,70.0006,309.2905,259.9683,100.1185,-3.5189e-05,-5.13e-06,0.0,0 STARLINK-5863,1 55922U 23037J   24083.86151812 -.00000513  00000-0 -35189-4 0  9998,2 55922  70.0006 309.2905 0002575 259.9683 100.1185 14.98330595 56607,6950.191,96.107,573.846,570.266,0.0
55922.0,STARLINK-5863,PAYLOAD,2024-03-23 22:16:43,14.98330438,0.0002602,70.0002,309.1221,252.5831,107.5043,-3.3689e-05,-4.95e-06,0.0,0 STARLINK-5863,1 55922U 23037J   24083.92827756 -.00000495  00000-0 -33689-4 0  9994,2 55922  70.0002 309.1221 0002602 252.5831 107.5043 14.98330438 56271,6950.192,96.107,573.865,570.248,0.0
55922.0,STARLINK-5863,PAYLOAD,2024-03-24 07:53:31,14.9833617,0.0002523,70.0,308.1112,271.9998,88.0872,-3.9441e-05,-5.64e-06,0.0,0 STARLINK-5863,1 55922U 23037J   24084.32883497 -.00000564  00000-0 -39441-4 0  9992,2 55922  70.0000 308.1112 0002523 271.9998  88.0872 14.98336170 56337,6950.174,96.107,573.792,570.285,0.0
55922.0,STARLINK-5863,PAYLOAD,2024-03-24 20:42:35,14.98340943,0.0002822,69.9994,306.7647,256.9853,103.0991,0.00014372,1.623e-05,0.0,0 STARLINK-5863,1 55922U 23037J   24084.86290755  .00001623  00000-0  14372-3 0  9990,2 55922  69.9994 306.7647 0002822 256.9853 103.0991 14.98340943 56757,6950.159,96.106,573.985,570.063,0.0
55922.0,STARLINK-5863,PAYLOAD,2024-03-24 22:18:43,14.98342425,0.0002822,69.9992,306.5962,259.0694,101.0147,0.00016081,1.827e-05,0.0,0 STARLINK-5863,1 55922U 23037J   24084.92966630  .00001827  00000-0  16081-3 0  9994,2 55922  69.9992 306.5962 0002822 259.0694 101.0147 14.98342425 56422,6950.154,96.106,573.981,570.058,0.0
55922.0,STARLINK-5863,PAYLOAD,2024-03-25 07:55:32,14.98336728,0.0002271,70.0009,305.5824,288.3539,71.7373,3.1008e-05,2.77e-06,0.0,0 STARLINK-5863,1 55922U 23037J   24085.33023229  .00000277  00000-0  31008-4 0  9993,2 55922  70.0009 305.5824 0002271 288.3539  71.7373 14.98336728 56828,6950.172,96.107,573.615,570.459,0.0
55922.0,STARLINK-5863,PAYLOAD,2024-03-25 22:20:44,14.98326234,0.0002891,69.9993,304.0714,268.0248,92.058,9.8652e-05,1.084e-05,0.0,0 STARLINK-5863,1 55922U 23037J   24085.93107607  .00001084  00000-0  98652-4 0  9997,2 55922  69.9993 304.0714 0002891 268.0248  92.0580 14.98326234 56578,6950.205,96.107,574.079,570.06,0.0
55922.0,STARLINK-5863,PAYLOAD,2024-03-25 23:56:52,14.98329149,0.000284,69.9992,303.9032,267.8326,92.2508,7.1941e-05,7.65e-06,0.0,0 STARLINK-5863,1 55922U 23037J   24085.99783508  .00000765  00000-0  71941-4 0  9990,2 55922  69.9992 303.9032 0002840 267.8326  92.2508 14.98329149 56925,6950.196,96.107,574.034,570.087,0.0
55922.0,STARLINK-5863,PAYLOAD,2024-03-26 14:22:06,14.98324312,0.0002711,69.9995,302.3886,267.577,92.5079,-6.8877e-05,-9.15e-06,0.0,0 STARLINK-5863,1 55922U 23037J   24086.59868287 -.00000915  00000-0 -68877-4 0  9998,2 55922  69.9995 302.3886 0002711 267.5770  92.5079 14.98324312 56670,6950.21,96.107,573.96,570.191,0.0
55922.0,STARLINK-5863,PAYLOAD,2024-03-26 20:46:38,14.98324057,0.0002726,69.9989,301.7135,264.0766,96.0082,-7.2427e-05,-9.57e-06,0.0,0 STARLINK-5863,1 55922U 23037J   24086.86572309 -.00000957  00000-0 -72427-4 0  9997,2 55922  69.9989 301.7135 0002726 264.0766  96.0082 14.98324057 57058,6950.211,96.107,573.971,570.182,0.0
55922.0,STARLINK-5863,PAYLOAD,2024-03-26 22:22:46,14.9831511,0.0002865,69.999,301.5453,264.3211,95.7621,4.8703e-05,4.88e-06,0.0,0 STARLINK-5863,1 55922U 23037J   24086.93248626  .00000488  00000-0  48703-4 0  9994,2 55922  69.9990 301.5453 0002865 264.3211  95.7621 14.98315110 56721,6950.239,96.108,574.095,570.113,0.0
55922.0,STARLINK-5863,PAYLOAD,2024-03-27 14:24:06,14.98326837,0.0003058,69.9986,299.8615,268.1834,91.8975,0.00013046,1.464e-05,0.0,0 STARLINK-5863,1 55922U 23037J   24087.60007713  .00001464  00000-0  13046-3 0  9995,2 55922  69.9986 299.8615 0003058 268.1834  91.8975 14.98326837 56821,6950.203,96.107,574.193,569.942,0.0
55922.0,STARLINK-5863,PAYLOAD,2024-03-27 20:48:38,14.98330023,0.0002967,69.9986,299.1885,267.9156,92.1664,0.00011339,1.26e-05,0.0,0 STARLINK-5863,1 55922U 23037J   24087.86711670  .00001260  00000-0  11339-3 0  9994,2 55922  69.9986 299.1885 0002967 267.9156  92.1664 14.98330023 57209,6950.193,96.107,574.12,569.996,0.0
55922.0,STARLINK-5863,PAYLOAD,2024-03-27 22:24:46,14.98330323,0.0002964,69.9986,299.0202,267.9171,92.1649,0.00011585,1.29e-05,0.0,0 STARLINK-5863,1 55922U 23037J   24087.93387656  .00001290  00000-0  11585-3 0  9991,2 55922  69.9986 299.0202 0002964 267.9171  92.1649 14.98330323 56873,6950.192,96.107,574.117,569.997,0.0
55922.0,STARLINK-5863,PAYLOAD,2024-03-28 12:49:59,14.98328365,0.0003035,69.9983,297.5054,267.7976,92.2836,0.00016691,1.899e-05,0.0,0 STARLINK-5863,1 55922U 23037J   24088.53471723  .00001899  00000-0  16691-3 0  9995,2 55922  69.9983 297.5054 0003035 267.7976  92.2836 14.98328365 56961,6950.198,96.107,574.172,569.954,0.0
